LINGQIAO VIDEO B        
1 40960U 15057C   24044.95655158  .00001811  00000+0  27645-3 0  9992
2 40960  97.6813  73.8541 0018227 158.3746 201.8238 14.74857020449411
JILIN-1                 
1 40961U 15057D   24044.95421941  .00001813  00000+0  27298-3 0  9990
2 40961  97.6860  76.5309 0018315 155.6471 204.5609 14.75473446449519
ELEKTRO-L 2             
1 41105U 15074A   24044.73484236 -.00000123  00000+0  00000+0 0  9994
2 41105   4.5236  80.9715 0003232 203.0073 109.2678  1.00269669 29933
TELEOS-1                
1 41169U 15077D   24044.58972650  .00025088  00000+0  92257-3 0  9997
2 41169  14.9817  26.7673 0007722 269.7587  90.1851 15.25590419451764
VELOX-II                
1 41171U 15077F   24044.92379697  .00083419  00000+0  16682-2 0  9999
2 41171  14.9908 305.0435 0003736  28.1023 331.9503 15.44931208452396
DAMPE                   
1 41173U 15078A   24044.93949801  .00003119  00000+0  12197-3 0  9990
2 41173  97.4245  39.0842 0011929 214.9363 145.1094 15.26544604454021
ORBCOMM FM114           
1 41179U 15081A   24044.81855012  .00002139  00000+0  51574-3 0  9990
2 41179  47.0032  74.7821 0002652 269.1286  90.9295 14.56304268433090
ORBCOMM FM110           
1 41182U 15081D   24044.79561634  .00002461  00000+0  58756-3 0  9992
2 41182  47.0009  74.3045 0000636  64.7516 295.3435 14.56303890432969
ORBCOMM FM112           
1 41184U 15081F   24044.83397044  .00002880  00000+0  68113-3 0  9994
2 41184  46.9999 343.1379 0001937 304.2796  55.7906 14.56305119434296
ORBCOMM FM113           
1 41185U 15081G   24044.87953493  .00002333  00000+0  55923-3 0  9993
2 41185  47.0030 343.1730 0001540 318.9358  41.1411 14.56286197434285
ORBCOMM FM108           
1 41187U 15081J   24044.83302963  .00001670  00000+0  41101-3 0  9997
2 41187  47.0037 254.5584 0002828 228.1833 131.8810 14.56280080435428
ORBCOMM FM117           
1 41188U 15081K   24044.86754097  .00001583  00000+0  39151-3 0  9995
2 41188  46.9996 253.3198 0003345 239.0546 121.0010 14.56283412435476
ORBCOMM FM116           
1 41189U 15081L   24044.85696515  .00002953  00000+0  69766-3 0  9992
2 41189  47.0027 343.1826 0002845 323.2410  36.8279 14.56301168434287
CHUBUSAT-2              
1 41338U 16012B   24044.86132460  .00008282  00000+0  53941-3 0  9997
2 41338  31.0018 109.9020 0011795  71.9571 288.2350 15.06564769438820
CHUBUSAT-3              
1 41339U 16012C   24044.56567024  .00007333  00000+0  48217-3 0  9999
2 41339  31.0083 109.6273 0011776  74.9606 285.2333 15.06168365438764
HORYU-4                 
1 41340U 16012D   24044.38283745  .00015318  00000+0  84401-3 0  9993
2 41340  31.0037  66.6507 0011104 150.5969 209.5296 15.12771106439213
OUFTI-1                 
1 41458U 16025C   24044.93239157  .00426380  00000+0  22535-2 0  9990
2 41458  98.1357 284.9447 0033154 309.9633  49.8721 15.78710067430453
E-ST@R-II               
1 41459U 16025D   24044.87287474  .00161816  00000+0  19773-2 0  9999
2 41459  98.1472 279.4912 0058232 325.8108  33.9400 15.57824021430110
AIST-2D (RS-48)         
1 41465U 16026B   24044.89472552  .00157546  00000+0  68784-3 0  9994
2 41465  96.9543 279.6925 0005363  61.4801 298.7010 15.84282766437836
ZIYUAN 3-2 (ZY 3-2)     
1 41556U 16033A   24044.90585021  .00015342  00000+0  69087-3 0  9995
2 41556  97.4675 121.4147 0000847 199.2050 160.9153 15.21160881428109
CARTOSAT-2C             
1 41599U 16040A   24044.93604569  .00009696  00000+0  46042-3 0  9993
2 41599  97.4031 106.0010 0012471 226.8629 133.1564 15.19375437424011
LAPAN-A3                
1 41603U 16040E   24044.93806506  .00006148  00000+0  25517-3 0  9997
2 41603  97.1512  64.3289 0012368 173.1759 186.9649 15.24118648424290
BIROS                   
1 41604U 16040F   24044.81393820  .00018926  00000+0  56339-3 0  9998
2 41604  97.1381  77.0668 0010945 127.5222 232.7018 15.34691429425086
M3MSAT                  
1 41605U 16040G   24044.80496041  .00017980  00000+0  55277-3 0  9996
2 41605  97.1383  74.4331 0010372 143.1027 217.0931 15.33686547424913
GAOFEN-3                
1 41727U 16049A   24044.90119885  .00000278  00000+0  97493-4 0  9998
2 41727  98.4077  54.3861 0000697  85.5297 274.5972 14.42260108395510
QSS (MOZI)              
1 41731U 16051A   24044.91199915  .00013227  00000+0  39174-3 0  9998
2 41731  97.3157 317.6170 0009196 320.5396  39.5176 15.34954298417618
PRATHAM                 
1 41783U 16059A   24044.79859871  .00001916  00000+0  36708-3 0  9995
2 41783  97.8480  69.9388 0033867  56.6043 303.8393 14.64514740394332
ALSAT 1N                
1 41789U 16059G   24044.87801522  .00002400  00000+0  44291-3 0  9995
2 41789  97.8431  75.8856 0028215  36.0655 324.2445 14.66094387394676
CAS-2T & KS-1Q          
1 41847U 16066G   24044.80794309  .00004001  00000+0  59426-3 0  9990
2 41847  98.4740 117.0119 0356032 191.5731 167.7115 14.40696309381589
YUNHAI 1                
1 41857U 16068A   24044.90307043  .00000833  00000+0  32000-3 0  9997
2 41857  98.5942  51.9603 0007893  20.1485 340.0009 14.33076695379486
RESOURCESAT-2A          
1 41877U 16074A   24044.92737129  .00000428  00000+0  21489-3 0  9999
2 41877  98.6576 120.8480 0001483  58.7468 301.3855 14.21652683372923
TANSAT                  
1 41898U 16081A   24044.89391551  .00001474  00000+0  32928-3 0  9993
2 41898  98.4559  13.4277 0022164  68.8012 291.5551 14.58157357380034
JILIN-1 03              
1 41914U 17002B   24044.91234023  .00012004  00000+0  60380-3 0  9993
2 41914  97.2286  67.4129 0009391 348.0982  12.0028 15.17334407391304
KAIDUN 1                
1 41915U 17002C   24044.92914482  .00019959  00000+0  80169-3 0  9992
2 41915  97.2186  77.0272 0006206 329.5214  30.5663 15.24963701391914
CARTOSAT-2D             
1 41948U 17008A   24044.90409364  .00010617  00000+0  50631-3 0  9993
2 41948  97.4439 106.1353 0006072   5.5085 354.6216 15.19255152387877
DIDO-2                  
1 42000U 17008BE  24044.92386936  .00089662  00000+0  12183-2 0  9999
2 42000  97.1625 104.0960 0003639 222.8407 137.2565 15.57298373389306
ZHUHAI-1 02 (CAS-4B)    
1 42759U 17034B   24044.85987353  .00023512  00000+0  97194-3 0  9999
2 42759  43.0138 206.5959 0012788 246.4131 113.5377 15.23481951368419
ZHUHAI-1 01 (CAS-4A)    
1 42761U 17034D   24044.80515203  .00023463  00000+0  96757-3 0  9997
2 42761  43.0123 205.3503 0012921 248.0660 111.8817 15.23563587368407
NIUSAT                  
1 42766U 17036B   24044.59553914  .00148897  00000+0  14288-2 0  9998
2 42766  97.1209  78.5381 0002901 300.9619  59.1357 15.66145254369992
CARTOSAT-2E             
1 42767U 17036C   24044.92010892  .00010976  00000+0  52291-3 0  9992
2 42767  97.4561 106.0526 0007081  60.8922 299.3021 15.19275112368448
AALTO-1                 
1 42775U 17036L   24044.59314789  .00057304  00000+0  10206-2 0  9991
2 42775  97.1251  74.3985 0005270 319.0939  40.9917 15.49922470369715
URSA MAIOR              
1 42776U 17036M   24044.58846520  .00079720  00000+0  11422-2 0  9991
2 42776  97.1235  76.9312 0003644 302.3049  57.7853 15.55899182369861
MAX VALIER SAT          
1 42778U 17036P   24044.81764019  .00075785  00000+0  10366-2 0  9994
2 42778  97.1250  81.1915 0003458 303.7925  56.3001 15.57171977370070
DIAMOND RED             
1 42783U 17036U   24044.60446180  .00140217  00000+0  13045-2 0  9993
2 42783  97.1134  82.0906 0001903 306.7051  53.4035 15.66948341370200
DIAMOND GREEN           
1 42785U 17036W   24044.88651334  .00224138  00000+0  15307-2 0  9992
2 42785  97.1088  83.4967 0001201 282.5963  77.5168 15.74162171370398
DIAMOND BLUE            
1 42786U 17036X   24044.82660930  .00182654  00000+0  14850-2 0  9997
2 42786  97.1136  82.8944 0001733 283.7313  76.3757 15.70131237370344
D-SAT                   
1 42794U 17036AF  24044.89894991  .00008700  00000+0  64316-3 0  9991
2 42794  97.4852  31.4407 0110034 206.1783 153.3853 14.98644968362095
IRIDIUM 113             
1 42803U 17039A   24044.78530639  .00000782  00000+0  27230-3 0  9995
2 42803  86.4002 319.2135 0002035  77.7389 282.4035 14.34222881348727
NORSAT 2                
1 42828U 17042D   24044.79104451  .00011938  00000+0  98744-3 0  9999
2 42828  97.3794 237.3375 0012374 123.3574 236.8836 14.98990491358777
TECHNOSAT               
1 42829U 17042E   24044.83867988  .00006088  00000+0  55500-3 0  9999
2 42829  97.3803 232.9935 0013561 129.4114 230.8311 14.95385160358587
FLYING LAPTOP           
1 42831U 17042G   24044.93467393  .00005229  00000+0  49033-3 0  9999
2 42831  97.3823 233.1621 0014152 130.1955 230.0507 14.94327795358573
WNISAT 1R               
1 42835U 17042L   24044.83850520  .00004304  00000+0  40332-3 0  9996
2 42835  97.3800 232.9431 0013225 128.3301 231.9111 14.94449947358588
LEMUR-2-GREENBERG       
1 42837U 17042N   24044.53313235  .00015713  00000+0  12210-2 0  9991
2 42837  97.3702 239.3582 0015756  97.9981 262.3032 15.01288900358922
LEMUR-2-FURIAUS         
1 42840U 17042R   24044.79152072  .00012097  00000+0  95944-3 0  9991
2 42840  97.3739 239.4935 0012480 130.5391 229.6922 15.00602154358912
CORVUS BC2              
1 42846U 17042X   24044.80185692  .00006581  00000+0  58391-3 0  9999
2 42846  97.3729 236.9323 0009757 114.5757 245.6483 14.96454873358839
CORVUS BC1              
1 42847U 17042Y   24044.84214997  .00005393  00000+0  47760-3 0  9993
2 42847  97.3731 237.3546 0009254 112.3170 247.9035 14.96605506358853
VRSS-2                  
1 42954U 17060A   24044.93170833  .00002415  00000+0  34066-3 0  9999
2 42954  97.7723 105.6060 0018339   9.1496 351.0046 14.78008749342110
MOHAMMED VI-A           
1 43005U 17070A   24044.91740102  .00002093  00000+0  30360-3 0  9993
2 43005  97.9529 118.5156 0001340  87.7419 272.3944 14.77073478337873
FENGYUN 3D              
1 43010U 17072A   24044.88120993  .00000335  00000+0  18105-3 0  9997
2 43010  98.8953 358.9192 0001499  13.6271 346.4945 14.19283295323784
